{"type": "FeatureCollection", "features": [ {"type": "Feature", "properties": {"norad_id": 40115, "name": "WORLDVIEW-3 (WV-3)", "group": "resource", "lat": -41.3416458751658, "lon": 66.49410156155032, "alt_km": 620.9378375983733, "timestamp": "2025-12-13T05:42:57.154186+00:00", "meta": {"OBJECT_NAME": "WORLDVIEW-3 (WV-3)", "OBJECT_ID": "2014-048A", "EPOCH": "2025-12-12T05:39:18.082080", "MEAN_MOTION": 14.85510443, "ECCENTRICITY": 0.00047561, "INCLINATION": 97.8613, "RA_OF_ASC_NODE": 58.5221, "ARG_OF_PERICENTER": 186.1841, "MEAN_ANOMALY": 173.9316, "EPHEMERIS_TYPE": 0, "CLASSIFICATION_TYPE": "U", "NORAD_CAT_ID": 40115, "ELEMENT_SET_NO": 999, "REV_AT_EPOCH": 61416, "BSTAR": 0.00024551882, "MEAN_MOTION_DOT": 2.067e-05, "MEAN_MOTION_DDOT": 0}, "tle": {"line1": "1 40115U 14048A   25346.23562595  .00002067  00000+0  24552-3 0  9990", "line2": "2 40115  97.8613  58.5221 0004756 186.1841 173.9316 14.85510443614164"}}, "geometry": {"type": "Point", "coordinates": [66.49410156155032, -41.3416458751658]}}, {"type": "Feature", "properties": {"norad_id": 40118, "name": "GAOFEN-2", "group": "resource", "lat": 52.29082087755083, "lon": -123.06132971246019, "alt_km": 616.7203147273913, "timestamp": "2025-12-13T05:42:57.154196+00:00", "meta": {"OBJECT_NAME": "GAOFEN-2", "OBJECT_ID": "2014-049A", "EPOCH": "2025-12-12T08:03:36.201024", "MEAN_MOTION": 14.80610367, "ECCENTRICITY": 0.00086063, "INCLINATION": 98.0381, "RA_OF_ASC_NODE": 45.5032, "ARG_OF_PERICENTER": 113.943, "MEAN_ANOMALY": 246.2684, "EPHEMERIS_TYPE": 0, "CLASSIFICATION_TYPE": "U", "NORAD_CAT_ID": 40118, "ELEMENT_SET_NO": 999, "REV_AT_EPOCH": 61158, "BSTAR": 0.00028783768, "MEAN_MOTION_DOT": 2.157e-05, "MEAN_MOTION_DDOT": 0}, "tle": {"line1": "1 40118U 14049A   25346.33583566  .00002157  00000+0  28784-3 0  9997", "line2": "2 40118  98.0381  45.5032 0008606 113.9430 246.2684 14.80610367611584"}}, "geometry": {"type": "Point", "coordinates": [-123.06132971246019, 52.29082087755083]}}, {"type": "Feature", "properties": {"norad_id": 40143, "name": "YAOGAN-21", "group": "resource", "lat": 12.214174341912708, "lon": -147.9076088827507, "alt_km": 500.1918170831341, "timestamp": "2025-12-13T05:42:57.154207+00:00", "meta": {"OBJECT_NAME": "YAOGAN-21", "OBJECT_ID": "2014-053A", "EPOCH": "2025-12-12T06:55:02.818848", "MEAN_MOTION": 15.23673625, "ECCENTRICITY": 0.00098032, "INCLINATION": 97.1757, "RA_OF_ASC_NODE": 29.6209, "ARG_OF_PERICENTER": 43.381, "MEAN_ANOMALY": 316.8198, "EPHEMERIS_TYPE": 0, "CLASSIFICATION_TYPE": "U", "NORAD_CAT_ID": 40143, "ELEMENT_SET_NO": 999, "REV_AT_EPOCH": 62647, "BSTAR": 0.00043345156, "MEAN_MOTION_DOT": 0.00010349, "MEAN_MOTION_DDOT": 0}, "tle": {"line1": "1 40143U 14053A   25346.28822707  .00010349  00000+0  43345-3 0  9999", "line2": "2 40143  97.1757  29.6209 0009803  43.3810 316.8198 15.23673625626478"}}, "geometry": {"type": "Point", "coordinates": [-147.9076088827507, 12.214174341912708]}}, {"type": "Feature", "properties": {"norad_id": 40275, "name": "YAOGAN-22", "group": "resource", "lat": -10.26961024676253, "lon": 132.6350820114784, "alt_km": 1206.7780555275049, "timestamp": "2025-12-13T05:42:57.154218+00:00", "meta": {"OBJECT_NAME": "YAOGAN-22", "OBJECT_ID": "2014-063A", "EPOCH": "2025-12-12T06:02:26.943072", "MEAN_MOTION": 13.15522665, "ECCENTRICITY": 0.00059533, "INCLINATION": 100.742, "RA_OF_ASC_NODE": 129.6643, "ARG_OF_PERICENTER": 249.4895, "MEAN_ANOMALY": 110.5578, "EPHEMERIS_TYPE": 0, "CLASSIFICATION_TYPE": "U", "NORAD_CAT_ID": 40275, "ELEMENT_SET_NO": 999, "REV_AT_EPOCH": 53523, "BSTAR": 3.1923564e-05, "MEAN_MOTION_DOT": -3.5e-07, "MEAN_MOTION_DDOT": 0}, "tle": {"line1": "1 40275U 14063A   25346.25170073 -.00000035  00000+0  31924-4 0  9998", "line2": "2 40275 100.7420 129.6643 0005953 249.4895 110.5578 13.15522665535239"}}, "geometry": {"type": "Point", "coordinates": [132.6350820114784, -10.26961024676253]}}, {"type": "Feature", "properties": {"norad_id": 40298, "name": "ASNARO", "group": "resource", "lat": -27.756555147932083, "lon": -120.73148444962368, "alt_km": 513.0342102542172, "timestamp": "2025-12-13T05:42:57.154228+00:00", "meta": {"OBJECT_NAME": "ASNARO", "OBJECT_ID": "2014-070A", "EPOCH": "2025-12-12T06:40:39.247392", "MEAN_MOTION": 15.19484638, "ECCENTRICITY": 0.00055272, "INCLINATION": 97.3651, "RA_OF_ASC_NODE": 62.2354, "ARG_OF_PERICENTER": 123.383, "MEAN_ANOMALY": 236.7935, "EPHEMERIS_TYPE": 0, "CLASSIFICATION_TYPE": "U", "NORAD_CAT_ID": 40298, "ELEMENT_SET_NO": 999, "REV_AT_EPOCH": 61562, "BSTAR": 0.00081399454, "MEAN_MOTION_DOT": 0.00017239, "MEAN_MOTION_DDOT": 0}, "tle": {"line1": "1 40298U 14070A   25346.27823203  .00017239  00000+0  81399-3 0  9996", "line2": "2 40298  97.3651  62.2354 0005527 123.3830 236.7935 15.19484638615621"}}, "geometry": {"type": "Point", "coordinates": [-120.73148444962368, -27.756555147932083]}}, {"type": "Feature", "properties": {"norad_id": 40310, "name": "YAOGAN-24", "group": "resource", "lat": 75.06686666826158, "lon": -29.29025953681239, "alt_km": 625.6675367498865, "timestamp": "2025-12-13T05:42:57.154238+00:00", "meta": {"OBJECT_NAME": "YAOGAN-24", "OBJECT_ID": "2014-072A", "EPOCH": "2025-12-12T08:06:16.884288", "MEAN_MOTION": 14.76176963, "ECCENTRICITY": 0.00147361, "INCLINATION": 98.1222, "RA_OF_ASC_NODE": 117.4282, "ARG_OF_PERICENTER": 139.2985, "MEAN_ANOMALY": 220.9328, "EPHEMERIS_TYPE": 0, "CLASSIFICATION_TYPE": "U", "NORAD_CAT_ID": 40310, "ELEMENT_SET_NO": 999, "REV_AT_EPOCH": 59615, "BSTAR": 0.00028628645, "MEAN_MOTION_DOT": 1.93e-05, "MEAN_MOTION_DDOT": 0}, "tle": {"line1": "1 40310U 14072A   25346.33769542  .00001930  00000+0  28629-3 0  9993", "line2": "2 40310  98.1222 117.4282 0014736 139.2985 220.9328 14.76176963596159"}}, "geometry": {"type": "Point", "coordinates": [-29.29025953681239, 75.06686666826158]}}, {"type": "Feature", "properties": {"norad_id": 40336, "name": "CBERS 4", "group": "resource", "lat": 48.91048635873194, "lon": -125.08961529828731, "alt_km": 767.8025892957921, "timestamp": "2025-12-13T05:42:57.154249+00:00", "meta": {"OBJECT_NAME": "CBERS 4", "OBJECT_ID": "2014-079A", "EPOCH": "2025-12-12T07:21:50.824800", "MEAN_MOTION": 14.35517439, "ECCENTRICITY": 0.000164, "INCLINATION": 98.3305, "RA_OF_ASC_NODE": 44.3381, "ARG_OF_PERICENTER": 113.6488, "MEAN_ANOMALY": 246.487, "EPHEMERIS_TYPE": 0, "CLASSIFICATION_TYPE": "U", "NORAD_CAT_ID": 40336, "ELEMENT_SET_NO": 999, "REV_AT_EPOCH": 57714, "BSTAR": 8.9687597e-05, "MEAN_MOTION_DOT": 2.16e-06, "MEAN_MOTION_DDOT": 0}, "tle": {"line1": "1 40336U 14079A   25346.30683825  .00000216  00000+0  89688-4 0  9993", "line2": "2 40336  98.3305  44.3381 0001640 113.6488 246.4870 14.35517439577148"}}, "geometry": {"type": "Point", "coordinates": [-125.08961529828731, 48.91048635873194]}}, {"type": "Feature", "properties": {"norad_id": 40362, "name": "YAOGAN-26", "group": "resource", "lat": -82.92814562406393, "lon": 76.42795069357513, "alt_km": 457.4363330134456, "timestamp": "2025-12-13T05:42:57.154260+00:00", "meta": {"OBJECT_NAME": "YAOGAN-26", "OBJECT_ID": "2014-088A", "EPOCH": "2025-12-12T06:42:10.979136", "MEAN_MOTION": 15.39277273, "ECCENTRICITY": 0.00062369, "INCLINATION": 97.0646, "RA_OF_ASC_NODE": 346.9695, "ARG_OF_PERICENTER": 31.3315, "MEAN_ANOMALY": 328.8302, "EPHEMERIS_TYPE": 0, "CLASSIFICATION_TYPE": "U", "NORAD_CAT_ID": 40362, "ELEMENT_SET_NO": 999, "REV_AT_EPOCH": 60887, "BSTAR": 0.00073574284, "MEAN_MOTION_DOT": 0.00028677, "MEAN_MOTION_DDOT": 0}, "tle": {"line1": "1 40362U 14088A   25346.27929374  .00028677  00000+0  73574-3 0  9997", "line2": "2 40362  97.0646 346.9695 0006236  31.3315 328.8302 15.39277273608875"}}, "geometry": {"type": "Point", "coordinates": [76.42795069357513, -82.92814562406393]}}, {"type": "Feature", "properties": {"norad_id": 40376, "name": "SMAP", "group": "resource", "lat": 22.607622411984885, "lon": -11.457418291768716, "alt_km": 681.6706628652446, "timestamp": "2025-12-13T05:42:57.154271+00:00", "meta": {"OBJECT_NAME": "SMAP", "OBJECT_ID": "2015-003A", "EPOCH": "2025-12-12T06:38:13.181280", "MEAN_MOTION": 14.63344192, "ECCENTRICITY": 0.00012033, "INCLINATION": 98.1292, "RA_OF_ASC_NODE": 351.0071, "ARG_OF_PERICENTER": 89.7362, "MEAN_ANOMALY": 270.3978, "EPHEMERIS_TYPE": 0, "CLASSIFICATION_TYPE": "U", "NORAD_CAT_ID": 40376, "ELEMENT_SET_NO": 999, "REV_AT_EPOCH": 58028, "BSTAR": 0.00018704463, "MEAN_MOTION_DOT": 9.19e-06, "MEAN_MOTION_DDOT": 0}, "tle": {"line1": "1 40376U 15003A   25346.27654145  .00000919  00000+0  18704-3 0  9994", "line2": "2 40376  98.1292 351.0071 0001203  89.7362 270.3978 14.63344192580287"}}, "geometry": {"type": "Point", "coordinates": [-11.457418291768716, 22.607622411984885]}}, {"type": "Feature", "properties": {"norad_id": 40536, "name": "KOMPSAT-3A", "group": "resource", "lat": -38.80602152872369, "lon": 135.38286268550445, "alt_km": 441.1880174705466, "timestamp": "2025-12-13T05:42:57.154281+00:00", "meta": {"OBJECT_NAME": "KOMPSAT-3A", "OBJECT_ID": "2015-014A", "EPOCH": "2025-12-12T05:26:16.816992", "MEAN_MOTION": 15.43914113, "ECCENTRICITY": 0.00049115, "INCLINATION": 97.6788, "RA_OF_ASC_NODE": 320.5445, "ARG_OF_PERICENTER": 128.5924, "MEAN_ANOMALY": 231.5764, "EPHEMERIS_TYPE": 0, "CLASSIFICATION_TYPE": "U", "NORAD_CAT_ID": 40536, "ELEMENT_SET_NO": 999, "REV_AT_EPOCH": 59287, "BSTAR": 0.00058190071, "MEAN_MOTION_DOT": 0.00026418, "MEAN_MOTION_DDOT": 0}, "tle": {"line1": "1 40536U 15014A   25346.22658353  .00026418  00000+0  58190-3 0  9999", "line2": "2 40536  97.6788 320.5445 0004911 128.5924 231.5764 15.43914113592875"}}, "geometry": {"type": "Point", "coordinates": [135.38286268550445, -38.80602152872369]}}]}